SL-4 R/B                
1 39679U 14021B   26001.25264688  .00017044  00000+0  39782-3 0  9999
2 39679  51.6086 305.7315 0100271 216.7769 142.6306 15.37174310645891
ALOS-2                  
1 39766U 14029A   26001.55946832  .00004840  00000+0  65454-3 0  9990
2 39766  97.9220 101.1236 0001390 105.3675 254.7690 14.79469784626945
YAOGAN-29               
1 41038U 15069A   26001.59031002  .00000841  00000+0  11046-3 0  9993
2 41038  98.0211  29.8249 0001408 148.0520 212.0779 14.82908598545934
ASTRO-H (HITOMI)        
1 41337U 16012A   26001.52867590  .00005896  00000+0  35289-3 0  9996
2 41337  31.0004  69.7829 0009587  17.5046 342.5921 15.09505188542077
HXMT (HUIYAN)           
1 42758U 17034A   26001.55209484  .00009563  00000+0  48699-3 0  9998
2 42758  43.0156  29.6671 0032100 172.6731 187.4592 15.16514873472348
CZ-2C R/B               
1 43521U 18054D   26001.49457537  .00167923  00000+0  89275-3 0  9997
2 43521  35.1337  46.5004 0012791 340.1657  19.8579 15.78878973418177
SAOCOM 1A               
1 43641U 18076A   26001.65504885 -.00000471  00000+0 -52610-4 0  9991
2 43641  97.8845 190.7868 0001345  81.9926 278.1440 14.82156381391433
H-2A R/B                
1 43682U 18084L   26001.53909802  .00033185  00000+0  87125-3 0  9994
2 43682  98.8762 204.7340 0026102 256.7609 103.0720 15.38222903395444
SAOCOM 1B               
1 46265U 20059A   26001.61877272  .00001462  00000+0  19010-3 0  9994
2 46265  97.8842 189.8508 0001472  85.9608 274.1773 14.82165759288818
CSS (TIANHE)            
1 48274U 21035A   26001.37383927  .00025321  00000+0  30674-3 0  9992
2 48274  41.4667 257.4382 0010026 196.8065 163.2443 15.60009299267098
COSMOS 2550             
1 48865U 21056A   25365.50582977 -.00000169  00000+0  69865-6 0  9995
2 48865  67.1441 247.1723 0008331 269.3764  90.6436 15.33836624253003
CZ-2C R/B               
1 52794U 22058K   26001.22436286  .00039221  00000+0  67267-3 0  9993
2 52794  50.1922 304.1064 0043998 278.3902  81.2080 15.49659566199655
