CCSDS_OMM_VERS = 2.0
CREATION_DATE  = 
ORIGINATOR     = 

OBJECT_NAME    = SL-4 R/B
OBJECT_ID      = 2014-021B
CENTER_NAME    = EARTH
REF_FRAME      = TEME
TIME_SYSTEM    = UTC
MEAN_ELEMENT_THEORY = SGP/SGP4

EPOCH          = 2026-01-01T06:03:48.690432
MEAN_MOTION    = 15.37174310
ECCENTRICITY   = .01002713
INCLINATION    = 51.6086
RA_OF_ASC_NODE = 305.7315
ARG_OF_PERICENTER = 216.7769
MEAN_ANOMALY   = 142.6306

EPHEMERIS_TYPE = 0
CLASSIFICATION_TYPE = U
NORAD_CAT_ID   = 39679
ELEMENT_SET_NO = 999
REV_AT_EPOCH   = 64589
BSTAR          = .39782496E-3
MEAN_MOTION_DOT = .17044E-3
MEAN_MOTION_DDOT = 0

CCSDS_OMM_VERS = 2.0
CREATION_DATE  = 
ORIGINATOR     = 

OBJECT_NAME    = ALOS-2
OBJECT_ID      = 2014-029A
CENTER_NAME    = EARTH
REF_FRAME      = TEME
TIME_SYSTEM    = UTC
MEAN_ELEMENT_THEORY = SGP/SGP4

EPOCH          = 2026-01-01T13:25:38.062848
MEAN_MOTION    = 14.79469784
ECCENTRICITY   = .00013907
INCLINATION    = 97.9220
RA_OF_ASC_NODE = 101.1236
ARG_OF_PERICENTER = 105.3675
MEAN_ANOMALY   = 254.7690

EPHEMERIS_TYPE = 0
CLASSIFICATION_TYPE = U
NORAD_CAT_ID   = 39766
ELEMENT_SET_NO = 999
REV_AT_EPOCH   = 62694
BSTAR          = .65454229E-3
MEAN_MOTION_DOT = .484E-4
MEAN_MOTION_DDOT = 0

CCSDS_OMM_VERS = 2.0
CREATION_DATE  = 
ORIGINATOR     = 

OBJECT_NAME    = YAOGAN-29
OBJECT_ID      = 2015-069A
CENTER_NAME    = EARTH
REF_FRAME      = TEME
TIME_SYSTEM    = UTC
MEAN_ELEMENT_THEORY = SGP/SGP4

EPOCH          = 2026-01-01T14:10:02.785728
MEAN_MOTION    = 14.82908598
ECCENTRICITY   = .00014083
INCLINATION    = 98.0211
RA_OF_ASC_NODE = 29.8249
ARG_OF_PERICENTER = 148.0520
MEAN_ANOMALY   = 212.0779

EPHEMERIS_TYPE = 0
CLASSIFICATION_TYPE = U
NORAD_CAT_ID   = 41038
ELEMENT_SET_NO = 999
REV_AT_EPOCH   = 54593
BSTAR          = .11046228E-3
MEAN_MOTION_DOT = .841E-5
MEAN_MOTION_DDOT = 0

CCSDS_OMM_VERS = 2.0
CREATION_DATE  = 
ORIGINATOR     = 

OBJECT_NAME    = ASTRO-H (HITOMI)
OBJECT_ID      = 2016-012A
CENTER_NAME    = EARTH
REF_FRAME      = TEME
TIME_SYSTEM    = UTC
MEAN_ELEMENT_THEORY = SGP/SGP4

EPOCH          = 2026-01-01T12:41:17.597760
MEAN_MOTION    = 15.09505188
ECCENTRICITY   = .00095875
INCLINATION    = 31.0004
RA_OF_ASC_NODE = 69.7829
ARG_OF_PERICENTER = 17.5046
MEAN_ANOMALY   = 342.5921

EPHEMERIS_TYPE = 0
CLASSIFICATION_TYPE = U
NORAD_CAT_ID   = 41337
ELEMENT_SET_NO = 999
REV_AT_EPOCH   = 54207
BSTAR          = .35289457E-3
MEAN_MOTION_DOT = .5896E-4
MEAN_MOTION_DDOT = 0

CCSDS_OMM_VERS = 2.0
CREATION_DATE  = 
ORIGINATOR     = 

OBJECT_NAME    = HXMT (HUIYAN)
OBJECT_ID      = 2017-034A
CENTER_NAME    = EARTH
REF_FRAME      = TEME
TIME_SYSTEM    = UTC
MEAN_ELEMENT_THEORY = SGP/SGP4

EPOCH          = 2026-01-01T13:15:00.994176
MEAN_MOTION    = 15.16514873
ECCENTRICITY   = .00321004
INCLINATION    = 43.0156
RA_OF_ASC_NODE = 29.6671
ARG_OF_PERICENTER = 172.6731
MEAN_ANOMALY   = 187.4592

EPHEMERIS_TYPE = 0
CLASSIFICATION_TYPE = U
NORAD_CAT_ID   = 42758
ELEMENT_SET_NO = 999
REV_AT_EPOCH   = 47234
BSTAR          = .48699428E-3
MEAN_MOTION_DOT = .9563E-4
MEAN_MOTION_DDOT = 0

CCSDS_OMM_VERS = 2.0
CREATION_DATE  = 
ORIGINATOR     = 

OBJECT_NAME    = CZ-2C R/B
OBJECT_ID      = 2018-054D
CENTER_NAME    = EARTH
REF_FRAME      = TEME
TIME_SYSTEM    = UTC
MEAN_ELEMENT_THEORY = SGP/SGP4

EPOCH          = 2026-01-01T11:52:11.311968
MEAN_MOTION    = 15.78878973
ECCENTRICITY   = .00127911
INCLINATION    = 35.1337
RA_OF_ASC_NODE = 46.5004
ARG_OF_PERICENTER = 340.1657
MEAN_ANOMALY   = 19.8579

EPHEMERIS_TYPE = 0
CLASSIFICATION_TYPE = U
NORAD_CAT_ID   = 43521
ELEMENT_SET_NO = 999
REV_AT_EPOCH   = 41817
BSTAR          = .89275086E-3
MEAN_MOTION_DOT = .167923E-2
MEAN_MOTION_DDOT = 0

CCSDS_OMM_VERS = 2.0
CREATION_DATE  = 
ORIGINATOR     = 

OBJECT_NAME    = SAOCOM 1A
OBJECT_ID      = 2018-076A
CENTER_NAME    = EARTH
REF_FRAME      = TEME
TIME_SYSTEM    = UTC
MEAN_ELEMENT_THEORY = SGP/SGP4

EPOCH          = 2026-01-01T15:43:16.220640
MEAN_MOTION    = 14.82156381
ECCENTRICITY   = .00013452
INCLINATION    = 97.8845
RA_OF_ASC_NODE = 190.7868
ARG_OF_PERICENTER = 81.9926
MEAN_ANOMALY   = 278.1440

EPHEMERIS_TYPE = 0
CLASSIFICATION_TYPE = U
NORAD_CAT_ID   = 43641
ELEMENT_SET_NO = 999
REV_AT_EPOCH   = 39143
BSTAR          = -.52610366E-4
MEAN_MOTION_DOT = -.471E-5
MEAN_MOTION_DDOT = 0

CCSDS_OMM_VERS = 2.0
CREATION_DATE  = 
ORIGINATOR     = 

OBJECT_NAME    = H-2A R/B
OBJECT_ID      = 2018-084L
CENTER_NAME    = EARTH
REF_FRAME      = TEME
TIME_SYSTEM    = UTC
MEAN_ELEMENT_THEORY = SGP/SGP4

EPOCH          = 2026-01-01T12:56:18.068928
MEAN_MOTION    = 15.38222903
ECCENTRICITY   = .0026102
INCLINATION    = 98.8762
RA_OF_ASC_NODE = 204.7340
ARG_OF_PERICENTER = 256.7609
MEAN_ANOMALY   = 103.0720

EPHEMERIS_TYPE = 0
CLASSIFICATION_TYPE = U
NORAD_CAT_ID   = 43682
ELEMENT_SET_NO = 999
REV_AT_EPOCH   = 39544
BSTAR          = .87125322E-3
MEAN_MOTION_DOT = .33185E-3
MEAN_MOTION_DDOT = 0

CCSDS_OMM_VERS = 2.0
CREATION_DATE  = 
ORIGINATOR     = 

OBJECT_NAME    = SAOCOM 1B
OBJECT_ID      = 2020-059A
CENTER_NAME    = EARTH
REF_FRAME      = TEME
TIME_SYSTEM    = UTC
MEAN_ELEMENT_THEORY = SGP/SGP4

EPOCH          = 2026-01-01T14:51:01.963008
MEAN_MOTION    = 14.82165759
ECCENTRICITY   = .00014721
INCLINATION    = 97.8842
RA_OF_ASC_NODE = 189.8508
ARG_OF_PERICENTER = 85.9608
MEAN_ANOMALY   = 274.1773

EPHEMERIS_TYPE = 0
CLASSIFICATION_TYPE = U
NORAD_CAT_ID   = 46265
ELEMENT_SET_NO = 999
REV_AT_EPOCH   = 28881
BSTAR          = .19009883E-3
MEAN_MOTION_DOT = .1462E-4
MEAN_MOTION_DDOT = 0

CCSDS_OMM_VERS = 2.0
CREATION_DATE  = 
ORIGINATOR     = 

OBJECT_NAME    = CSS (TIANHE)
OBJECT_ID      = 2021-035A
CENTER_NAME    = EARTH
REF_FRAME      = TEME
TIME_SYSTEM    = UTC
MEAN_ELEMENT_THEORY = SGP/SGP4

EPOCH          = 2026-01-01T08:58:19.712928
MEAN_MOTION    = 15.60009299
ECCENTRICITY   = .00100268
INCLINATION    = 41.4667
RA_OF_ASC_NODE = 257.4382
ARG_OF_PERICENTER = 196.8065
MEAN_ANOMALY   = 163.2443

EPHEMERIS_TYPE = 0
CLASSIFICATION_TYPE = U
NORAD_CAT_ID   = 48274
ELEMENT_SET_NO = 999
REV_AT_EPOCH   = 26709
BSTAR          = .3067354E-3
MEAN_MOTION_DOT = .25321E-3
MEAN_MOTION_DDOT = 0

CCSDS_OMM_VERS = 2.0
CREATION_DATE  = 
ORIGINATOR     = 

OBJECT_NAME    = COSMOS 2550
OBJECT_ID      = 2021-056A
CENTER_NAME    = EARTH
REF_FRAME      = TEME
TIME_SYSTEM    = UTC
MEAN_ELEMENT_THEORY = SGP/SGP4

EPOCH          = 2025-12-31T12:08:23.692128
MEAN_MOTION    = 15.33836624
ECCENTRICITY   = .00083314
INCLINATION    = 67.1441
RA_OF_ASC_NODE = 247.1723
ARG_OF_PERICENTER = 269.3764
MEAN_ANOMALY   = 90.6436

EPHEMERIS_TYPE = 0
CLASSIFICATION_TYPE = U
NORAD_CAT_ID   = 48865
ELEMENT_SET_NO = 999
REV_AT_EPOCH   = 25300
BSTAR          = .698646E-6
MEAN_MOTION_DOT = -.169E-5
MEAN_MOTION_DDOT = 0

CCSDS_OMM_VERS = 2.0
CREATION_DATE  = 
ORIGINATOR     = 

OBJECT_NAME    = CZ-2C R/B
OBJECT_ID      = 2022-058K
CENTER_NAME    = EARTH
REF_FRAME      = TEME
TIME_SYSTEM    = UTC
MEAN_ELEMENT_THEORY = SGP/SGP4

EPOCH          = 2026-01-01T05:23:04.951104
MEAN_MOTION    = 15.49659566
ECCENTRICITY   = .00439983
INCLINATION    = 50.1922
RA_OF_ASC_NODE = 304.1064
ARG_OF_PERICENTER = 278.3902
MEAN_ANOMALY   = 81.2080

EPHEMERIS_TYPE = 0
CLASSIFICATION_TYPE = U
NORAD_CAT_ID   = 52794
ELEMENT_SET_NO = 999
REV_AT_EPOCH   = 19965
BSTAR          = .67266974E-3
MEAN_MOTION_DOT = .39221E-3
MEAN_MOTION_DDOT = 0

